{
  "type": "FeatureCollection",
  "features": [
    {
      "type": "Feature",
      "properties": {
        "norad_id": 29807,
        "name": "FENGYUN 1C DEB",
        "group": "fengyun-1c-debris",
        "lat": -63.603343164559014,
        "lon": 145.22666198688583,
        "alt_km": 891.0425463627935,
        "timestamp": "2025-12-04T10:51:50.376847+00:00",
        "meta_object_name": "FENGYUN 1C DEB",
        "meta_object_id": "1999-025CZ",
        "meta_epoch": "2025-12-03T21:46:02.430912",
        "meta_mean_motion": 14.08644651,
        "meta_eccentricity": 0.00799759,
        "meta_inclination": 98.7548,
        "meta_ra_of_asc_node": 342.7846,
        "meta_arg_of_pericenter": 356.9718,
        "meta_mean_anomaly": 3.0958,
        "meta_ephemeris_type": 0,
        "meta_classification_type": "U",
        "meta_norad_cat_id": 29807,
        "meta_element_set_no": 999,
        "meta_rev_at_epoch": 96970,
        "meta_bstar": 0.00040624008,
        "meta_mean_motion_dot": 6.77e-06,
        "meta_mean_motion_ddot": 0,
        "tle_line1": "1 29807U 99025CZ  25337.90697258  .00000677  00000+0  40624-3 0  9995",
        "tle_line2": "2 29807  98.7548 342.7846 0079975 356.9718   3.0958 14.08644651969704"
      },
      "geometry": {
        "type": "Point",
        "coordinates": [
          145.22666198688583,
          -63.603343164559014
        ]
      }
    },
    {
      "type": "Feature",
      "properties": {
        "norad_id": 29808,
        "name": "FENGYUN 1C DEB",
        "group": "fengyun-1c-debris",
        "lat": -54.88023164034322,
        "lon": -91.74138259839292,
        "alt_km": 536.1421639887703,
        "timestamp": "2025-12-04T10:51:50.376858+00:00",
        "meta_object_name": "FENGYUN 1C DEB",
        "meta_object_id": "1999-025DA",
        "meta_epoch": "2025-12-03T17:54:56.081088",
        "meta_mean_motion": 15.15116853,
        "meta_eccentricity": 0.00164844,
        "meta_inclination": 99.0159,
        "meta_ra_of_asc_node": 254.3746,
        "meta_arg_of_pericenter": 96.9424,
        "meta_mean_anomaly": 317.2624,
        "meta_ephemeris_type": 0,
        "meta_classification_type": "U",
        "meta_norad_cat_id": 29808,
        "meta_element_set_no": 999,
        "meta_rev_at_epoch": 98089,
        "meta_bstar": 0.016823016,
        "meta_mean_motion_dot": 0.00330451,
        "meta_mean_motion_ddot": 0,
        "tle_line1": "1 29808U 99025DA  25337.74648242  .00330451  00000+0  16823-1 0  9995",
        "tle_line2": "2 29808  99.0159 254.3746 0016484  96.9424 317.2624 15.15116853980895"
      },
      "geometry": {
        "type": "Point",
        "coordinates": [
          -91.74138259839292,
          -54.88023164034322
        ]
      }
    },
    {
      "type": "Feature",
      "properties": {
        "norad_id": 29809,
        "name": "FENGYUN 1C DEB",
        "group": "fengyun-1c-debris",
        "lat": -37.84657033992844,
        "lon": 114.65688098260931,
        "alt_km": 819.3105900573682,
        "timestamp": "2025-12-04T10:51:50.376868+00:00",
        "meta_object_name": "FENGYUN 1C DEB",
        "meta_object_id": "1999-025DB",
        "meta_epoch": "2025-12-03T20:49:07.253184",
        "meta_mean_motion": 14.46548996,
        "meta_eccentricity": 0.01167251,
        "meta_inclination": 98.859,
        "meta_ra_of_asc_node": 301.0055,
        "meta_arg_of_pericenter": 16.5113,
        "meta_mean_anomaly": 36.4799,
        "meta_ephemeris_type": 0,
        "meta_classification_type": "U",
        "meta_norad_cat_id": 29809,
        "meta_element_set_no": 999,
        "meta_rev_at_epoch": 99339,
        "meta_bstar": 0.00064851791,
        "meta_mean_motion_dot": 2.49e-05,
        "meta_mean_motion_ddot": 0,
        "tle_line1": "1 29809U 99025DB  25337.86744506  .00002490  00000+0  64852-3 0  9995",
        "tle_line2": "2 29809  98.8590 301.0055 0116725  16.5113  36.4799 14.46548996993399"
      },
      "geometry": {
        "type": "Point",
        "coordinates": [
          114.65688098260931,
          -37.84657033992844
        ]
      }
    },
    {
      "type": "Feature",
      "properties": {
        "norad_id": 29810,
        "name": "FENGYUN 1C DEB",
        "group": "fengyun-1c-debris",
        "lat": 41.11551190376255,
        "lon": 6.675342064537359,
        "alt_km": 743.0922470691448,
        "timestamp": "2025-12-04T10:51:50.376878+00:00",
        "meta_object_name": "FENGYUN 1C DEB",
        "meta_object_id": "1999-025DC",
        "meta_epoch": "2025-12-03T16:46:06.422880",
        "meta_mean_motion": 14.29109477,
        "meta_eccentricity": 0.00673019,
        "meta_inclination": 99.2078,
        "meta_ra_of_asc_node": 14.0188,
        "meta_arg_of_pericenter": 44.8932,
        "meta_mean_anomaly": 80.0659,
        "meta_ephemeris_type": 0,
        "meta_classification_type": "U",
        "meta_norad_cat_id": 29810,
        "meta_element_set_no": 999,
        "meta_rev_at_epoch": 98248,
        "meta_bstar": 0.0003858135,
        "meta_mean_motion_dot": 9.54e-06,
        "meta_mean_motion_ddot": 0,
        "tle_line1": "1 29810U 99025DC  25337.69868545  .00000954  00000+0  38581-3 0  9991",
        "tle_line2": "2 29810  99.2078  14.0188 0067301  44.8932  80.0659 14.29109477982489"
      },
      "geometry": {
        "type": "Point",
        "coordinates": [
          6.675342064537359,
          41.11551190376255
        ]
      }
    },
    {
      "type": "Feature",
      "properties": {
        "norad_id": 29812,
        "name": "FENGYUN 1C DEB",
        "group": "fengyun-1c-debris",
        "lat": 10.07114108517987,
        "lon": 166.48406027092975,
        "alt_km": 789.6635557265745,
        "timestamp": "2025-12-04T10:51:50.376888+00:00",
        "meta_object_name": "FENGYUN 1C DEB",
        "meta_object_id": "1999-025DE",
        "meta_epoch": "2025-11-29T11:12:47.447712",
        "meta_mean_motion": 14.01918477,
        "meta_eccentricity": 0.01440113,
        "meta_inclination": 98.3498,
        "meta_ra_of_asc_node": 163.4107,
        "meta_arg_of_pericenter": 5.1053,
        "meta_mean_anomaly": 57.4679,
        "meta_ephemeris_type": 0,
        "meta_classification_type": "U",
        "meta_norad_cat_id": 29812,
        "meta_element_set_no": 999,
        "meta_rev_at_epoch": 95986,
        "meta_bstar": 0.0011179541,
        "meta_mean_motion_dot": 1.825e-05,
        "meta_mean_motion_ddot": 0,
        "tle_line1": "1 29812U 99025DE  25333.46721583  .00001825  00000+0  11180-2 0  9997",
        "tle_line2": "2 29812  98.3498 163.4107 0144011   5.1053  57.4679 14.01918477959869"
      },
      "geometry": {
        "type": "Point",
        "coordinates": [
          166.48406027092975,
          10.07114108517987
        ]
      }
    },
    {
      "type": "Feature",
      "properties": {
        "norad_id": 29813,
        "name": "FENGYUN 1C DEB",
        "group": "fengyun-1c-debris",
        "lat": 43.06746567841242,
        "lon": -173.17568681305215,
        "alt_km": 860.6410716491819,
        "timestamp": "2025-12-04T10:51:50.376898+00:00",
        "meta_object_name": "FENGYUN 1C DEB",
        "meta_object_id": "1999-025DF",
        "meta_epoch": "2025-12-03T21:10:01.255008",
        "meta_mean_motion": 14.09447444,
        "meta_eccentricity": 0.00115449,
        "meta_inclination": 98.7281,
        "meta_ra_of_asc_node": 358.0155,
        "meta_arg_of_pericenter": 248.9607,
        "meta_mean_anomaly": 233.2237,
        "meta_ephemeris_type": 0,
        "meta_classification_type": "U",
        "meta_norad_cat_id": 29813,
        "meta_element_set_no": 999,
        "meta_rev_at_epoch": 97135,
        "meta_bstar": 0.00017381163,
        "meta_mean_motion_dot": 2.61e-06,
        "meta_mean_motion_ddot": 0,
        "tle_line1": "1 29813U 99025DF  25337.88195897  .00000261  00000+0  17381-3 0  9994",
        "tle_line2": "2 29813  98.7281 358.0155 0011544 248.9607 233.2237 14.09447444971356"
      },
      "geometry": {
        "type": "Point",
        "coordinates": [
          -173.17568681305215,
          43.06746567841242
        ]
      }
    },
    {
      "type": "Feature",
      "properties": {
        "norad_id": 29815,
        "name": "FENGYUN 1C DEB",
        "group": "fengyun-1c-debris",
        "lat": -59.2734221896426,
        "lon": 0.9372106744310136,
        "alt_km": 784.8168656209264,
        "timestamp": "2025-12-04T10:51:50.376908+00:00",
        "meta_object_name": "FENGYUN 1C DEB",
        "meta_object_id": "1999-025DH",
        "meta_epoch": "2025-12-03T12:10:38.665344",
        "meta_mean_motion": 14.63616059,
        "meta_eccentricity": 0.01836145,
        "meta_inclination": 98.0558,
        "meta_ra_of_asc_node": 346.228,
        "meta_arg_of_pericenter": 164.1871,
        "meta_mean_anomaly": 196.5172,
        "meta_ephemeris_type": 0,
        "meta_classification_type": "U",
        "meta_norad_cat_id": 29815,
        "meta_element_set_no": 999,
        "meta_rev_at_epoch": 99720,
        "meta_bstar": 0.00071824623,
        "meta_mean_motion_dot": 4.717e-05,
        "meta_mean_motion_ddot": 0,
        "tle_line1": "1 29815U 99025DH  25337.50739196  .00004717  00000+0  71825-3 0  9994",
        "tle_line2": "2 29815  98.0558 346.2280 0183614 164.1871 196.5172 14.63616059997207"
      },
      "geometry": {
        "type": "Point",
        "coordinates": [
          0.9372106744310136,
          -59.2734221896426
        ]
      }
    }
  ]
}